start=new Date('2023-01-24T00:00:00.000Z').valueOf();
sats=[{"MEAN_ELEMENT_THEORY":"SGP4","TLE_LINE1":"1 49455U 21104AZ  23023.47737752  .00021601  00000-0  13711-2 0  9992","SEMIMAJOR_AXIS":"6917.875","EPHEMERIS_TYPE":"0","ELEMENT_SET_NO":"999","MEAN_MOTION_DOT":"0.00021601","MEAN_ANOMALY":"290.3428","INCLINATION":"53.2137","MEAN_MOTION":"15.08841799","RA_OF_ASC_NODE":"302.2325","OBJECT_ID":"2021-104AZ","CENTER_NAME":"EARTH","PERIAPSIS":"538.854","LAUNCH_DATE":"2021-11-13","ECCENTRICITY":"0.00012810","DECAY_DATE":null,"RCS_SIZE":"LARGE","SITE":"AFETR","EPOCH":"2023-01-23T11:27:25.417728","ARG_OF_PERICENTER":"69.7701","MEAN_MOTION_DDOT":"0.0000000000000","NORAD_CAT_ID":"49455","FILE":"3758813","CLASSIFICATION_TYPE":"U","BSTAR":"0.00137110000000","PERIOD":"95.437","GP_ID":"223613514","REF_FRAME":"TEME","TIME_SYSTEM":"UTC","TLE_LINE2":"2 49455  53.2137 302.2325 0001281  69.7701 290.3428 15.08841799 67563","APOAPSIS":"540.626","OBJECT_TYPE":"PAYLOAD","COUNTRY_CODE":"US","REV_AT_EPOCH":"6756","OBJECT_NAME":"STARLINK-3145"},{"DECAY_DATE":null,"RCS_SIZE":"LARGE","SITE":"AFETR","EPOCH":"2023-01-23T17:59:33.781056","ARG_OF_PERICENTER":"54.7013","LAUNCH_DATE":"2021-11-13","PERIAPSIS":"539.363","CENTER_NAME":"EARTH","ECCENTRICITY":"0.00005780","MEAN_ANOMALY":"305.4033","MEAN_MOTION":"15.08834210","INCLINATION":"53.2154","OBJECT_ID":"2021-104BA","RA_OF_ASC_NODE":"301.0024","MEAN_ELEMENT_THEORY":"SGP4","TLE_LINE1":"1 49456U 21104BA  23023.74969654  .00001359  00000-0  10346-3 0  9991","MEAN_MOTION_DOT":"0.00001359","ELEMENT_SET_NO":"999","SEMIMAJOR_AXIS":"6917.898","EPHEMERIS_TYPE":"0","OBJECT_NAME":"STARLINK-3124","TLE_LINE2":"2 49456  53.2154 301.0024 0000578  54.7013 305.4033 15.08834210 67609","OBJECT_TYPE":"PAYLOAD","APOAPSIS":"540.163","COUNTRY_CODE":"US","REV_AT_EPOCH":"6760","PERIOD":"95.438","GP_ID":"223615553","TIME_SYSTEM":"UTC","REF_FRAME":"TEME","MEAN_MOTION_DDOT":"0.0000000000000","NORAD_CAT_ID":"49456","FILE":"3758937","BSTAR":"0.00010346000000","CLASSIFICATION_TYPE":"U"},{"MEAN_MOTION_DOT":"0.00016502","EPHEMERIS_TYPE":"0","SEMIMAJOR_AXIS":"6917.874","ELEMENT_SET_NO":"999","TLE_LINE1":"1 49457U 21104BB  23023.07625449  .00016502  00000-0  10524-2 0  9992","MEAN_ELEMENT_THEORY":"SGP4","OBJECT_ID":"2021-104BB","RA_OF_ASC_NODE":"304.0343","MEAN_MOTION":"15.08842100","INCLINATION":"53.2135","MEAN_ANOMALY":"242.4669","ECCENTRICITY":"0.00013410","PERIAPSIS":"538.811","LAUNCH_DATE":"2021-11-13","CENTER_NAME":"EARTH","ARG_OF_PERICENTER":"117.6459","EPOCH":"2023-01-23T01:49:48.387936","RCS_SIZE":"LARGE","DECAY_DATE":null,"SITE":"AFETR","BSTAR":"0.00105240000000","CLASSIFICATION_TYPE":"U","NORAD_CAT_ID":"49457","FILE":"3758306","MEAN_MOTION_DDOT":"0.0000000000000","REF_FRAME":"TEME","TIME_SYSTEM":"UTC","GP_ID":"223601674","PERIOD":"95.437","REV_AT_EPOCH":"6750","COUNTRY_CODE":"US","OBJECT_TYPE":"PAYLOAD","APOAPSIS":"540.667","TLE_LINE2":"2 49457  53.2135 304.0343 0001341 117.6459 242.4669 15.08842100 67509","OBJECT_NAME":"STARLINK-3132"},{"MEAN_MOTION_DDOT":"0.0000000000000","FILE":"3758944","NORAD_CAT_ID":"49458","BSTAR":"0.00069746000000","CLASSIFICATION_TYPE":"U","PERIOD":"95.438","GP_ID":"223615672","TIME_SYSTEM":"UTC","REF_FRAME":"TEME","TLE_LINE2":"2 49458  53.2159 302.2056 0001109  94.6400 265.4719 15.08840648 67572","OBJECT_TYPE":"PAYLOAD","APOAPSIS":"540.511","REV_AT_EPOCH":"6757","COUNTRY_CODE":"US","OBJECT_NAME":"STARLINK-3156","MEAN_ELEMENT_THEORY":"SGP4","TLE_LINE1":"1 49458U 21104BC  23023.48105524  .00010830  00000-0  69746-3 0  9994","MEAN_MOTION_DOT":"0.00010830","ELEMENT_SET_NO":"999","SEMIMAJOR_AXIS":"6917.878","EPHEMERIS_TYPE":"0","MEAN_ANOMALY":"265.4719","MEAN_MOTION":"15.08840648","INCLINATION":"53.2159","RA_OF_ASC_NODE":"302.2056","OBJECT_ID":"2021-104BC","LAUNCH_DATE":"2021-11-13","PERIAPSIS":"538.976","CENTER_NAME":"EARTH","ECCENTRICITY":"0.00011090","RCS_SIZE":"LARGE","DECAY_DATE":null,"SITE":"AFETR","EPOCH":"2023-01-23T11:32:43.172736","ARG_OF_PERICENTER":"94.6400"},{"MEAN_MOTION":"15.08826347","INCLINATION":"53.2134","RA_OF_ASC_NODE":"301.0787","OBJECT_ID":"2021-104BD","MEAN_ANOMALY":"251.2646","TLE_LINE1":"1 49459U 21104BD  23023.73497954  .00008404  00000-0  54569-3 0  9995","MEAN_MOTION_DOT":"0.00008404","SEMIMAJOR_AXIS":"6917.922","EPHEMERIS_TYPE":"0","ELEMENT_SET_NO":"999","MEAN_ELEMENT_THEORY":"SGP4","EPOCH":"2023-01-23T17:38:22.232256","ARG_OF_PERICENTER":"108.8484","SITE":"AFETR","DECAY_DATE":null,"RCS_SIZE":"LARGE","PERIAPSIS":"538.905","LAUNCH_DATE":"2021-11-13","CENTER_NAME":"EARTH","ECCENTRICITY":"0.00012750","REF_FRAME":"TEME","TIME_SYSTEM":"UTC","PERIOD":"95.438","GP_ID":"223615671","FILE":"3758944","NORAD_CAT_ID":"49459","BSTAR":"0.00054569000000","CLASSIFICATION_TYPE":"U","MEAN_MOTION_DDOT":"0.0000000000000","OBJECT_NAME":"STARLINK-3141","REV_AT_EPOCH":"6760","COUNTRY_CODE":"US","TLE_LINE2":"2 49459  53.2134 301.0787 0001275 108.8484 251.2646 15.08826347 67604","OBJECT_TYPE":"PAYLOAD","APOAPSIS":"540.669"},{"PERIOD":"95.438","GP_ID":"223620173","REF_FRAME":"TEME","TIME_SYSTEM":"UTC","MEAN_MOTION_DDOT":"0.0000000000000","NORAD_CAT_ID":"49460","FILE":"3759117","BSTAR":"0.00076579000000","CLASSIFICATION_TYPE":"U","OBJECT_NAME":"STARLINK-3140","TLE_LINE2":"2 49460  53.2141 302.2813 0001152  72.2891 287.8227 15.08828999 67578","OBJECT_TYPE":"PAYLOAD","APOAPSIS":"540.576","COUNTRY_CODE":"US","REV_AT_EPOCH":"6757","MEAN_ANOMALY":"287.8227","MEAN_MOTION":"15.08828999","INCLINATION":"53.2141","RA_OF_ASC_NODE":"302.2813","OBJECT_ID":"2021-104BE","MEAN_ELEMENT_THEORY":"SGP4","TLE_LINE1":"1 49460U 21104BE  23023.46633649  .00011917  00000-0  76579-3 0  9998","MEAN_MOTION_DOT":"0.00011917","EPHEMERIS_TYPE":"0","SEMIMAJOR_AXIS":"6917.914","ELEMENT_SET_NO":"999","SITE":"AFETR","DECAY_DATE":null,"RCS_SIZE":"LARGE","EPOCH":"2023-01-23T11:11:31.472736","ARG_OF_PERICENTER":"72.2891","PERIAPSIS":"538.982","LAUNCH_DATE":"2021-11-13","CENTER_NAME":"EARTH","ECCENTRICITY":"0.00011520"},{"MEAN_ANOMALY":"278.8789","INCLINATION":"53.2126","MEAN_MOTION":"15.08840028","OBJECT_ID":"2021-115A","RA_OF_ASC_NODE":"231.7658","MEAN_ELEMENT_THEORY":"SGP4","TLE_LINE1":"1 49724U 21115A   23023.58045316  .00002298  00000-0  16240-3 0  9995","EPHEMERIS_TYPE":"0","SEMIMAJOR_AXIS":"6917.880","ELEMENT_SET_NO":"999","MEAN_MOTION_DOT":"0.00002298","SITE":"AFETR","DECAY_DATE":null,"RCS_SIZE":"LARGE","EPOCH":"2023-01-23T13:55:51.153024","ARG_OF_PERICENTER":"81.2324","CENTER_NAME":"EARTH","LAUNCH_DATE":"2021-12-02","PERIAPSIS":"539.006","ECCENTRICITY":"0.00010690","PERIOD":"95.438","GP_ID":"223621332","REF_FRAME":"TEME","TIME_SYSTEM":"UTC","MEAN_MOTION_DDOT":"0.0000000000000","NORAD_CAT_ID":"49724","FILE":"3759166","CLASSIFICATION_TYPE":"U","BSTAR":"0.00016240000000","OBJECT_NAME":"STARLINK-3219","TLE_LINE2":"2 49724  53.2126 231.7658 0001069  81.2324 278.8789 15.08840028 64370","APOAPSIS":"540.485","OBJECT_TYPE":"PAYLOAD","COUNTRY_CODE":"US","REV_AT_EPOCH":"6437"},{"COUNTRY_CODE":"US","REV_AT_EPOCH":"6429","APOAPSIS":"540.675","OBJECT_TYPE":"PAYLOAD","TLE_LINE2":"2 49725  53.2128 234.3010 0001329  88.4757 271.6387 15.08836660 64295","OBJECT_NAME":"STARLINK-3218","CLASSIFICATION_TYPE":"U","BSTAR":"-0.00005011500000","NORAD_CAT_ID":"49725","FILE":"3758277","MEAN_MOTION_DDOT":"0.0000000000000","REF_FRAME":"TEME","TIME_SYSTEM":"UTC","GP_ID":"223601129","PERIOD":"95.438","ECCENTRICITY":"0.00013290","CENTER_NAME":"EARTH","LAUNCH_DATE":"2021-12-02","PERIAPSIS":"538.836","ARG_OF_PERICENTER":"88.4757","EPOCH":"2023-01-23T00:25:04.222272","DECAY_DATE":null,"SITE":"AFETR","RCS_SIZE":"LARGE","EPHEMERIS_TYPE":"0","SEMIMAJOR_AXIS":"6917.891","ELEMENT_SET_NO":"999","MEAN_MOTION_DOT":"-0.00001085","TLE_LINE1":"1 49725U 21115B   23023.01740998 -.00001085  00000-0 -50115-4 0  9997","MEAN_ELEMENT_THEORY":"SGP4","RA_OF_ASC_NODE":"234.3010","OBJECT_ID":"2021-115B","INCLINATION":"53.2128","MEAN_MOTION":"15.08836660","MEAN_ANOMALY":"271.6387"},{"REF_FRAME":"TEME","TIME_SYSTEM":"UTC","GP_ID":"223621344","PERIOD":"95.438","CLASSIFICATION_TYPE":"U","BSTAR":"-0.00028786000000","NORAD_CAT_ID":"49726","FILE":"3759168","MEAN_MOTION_DDOT":"0.0000000000000","OBJECT_NAME":"STARLINK-3237","COUNTRY_CODE":"US","REV_AT_EPOCH":"6427","APOAPSIS":"540.884","OBJECT_TYPE":"PAYLOAD","TLE_LINE2":"2 49726  53.2133 240.6016 0001596  94.2630 265.8544 15.08828846 64274","OBJECT_ID":"2021-115C","RA_OF_ASC_NODE":"240.6016","INCLINATION":"53.2133","MEAN_MOTION":"15.08828846","MEAN_ANOMALY":"265.8544","SEMIMAJOR_AXIS":"6917.914","ELEMENT_SET_NO":"999","EPHEMERIS_TYPE":"0","MEAN_MOTION_DOT":"-0.00004865","TLE_LINE1":"1 49726U 21115C   23023.83984678 -.00004865  00000-0 -28786-3 0  9990","MEAN_ELEMENT_THEORY":"SGP4","ARG_OF_PERICENTER":"94.2630","EPOCH":"2023-01-23T20:09:22.761792","DECAY_DATE":null,"RCS_SIZE":"LARGE","SITE":"AFETR","ECCENTRICITY":"0.00015960","CENTER_NAME":"EARTH","PERIAPSIS":"538.675","LAUNCH_DATE":"2021-12-02"},{"MEAN_ANOMALY":"275.3014","MEAN_MOTION":"15.08842439","INCLINATION":"53.2131","RA_OF_ASC_NODE":"244.1545","OBJECT_ID":"2021-115D","MEAN_ELEMENT_THEORY":"SGP4","TLE_LINE1":"1 49727U 21115D   23023.04865204 -.00000452  00000-0 -10280-4 0  9996","MEAN_MOTION_DOT":"-0.00000452","EPHEMERIS_TYPE":"0","SEMIMAJOR_AXIS":"6917.873","ELEMENT_SET_NO":"999","DECAY_DATE":null,"RCS_SIZE":"LARGE","SITE":"AFETR","EPOCH":"2023-01-23T01:10:03.536256","ARG_OF_PERICENTER":"84.8123","PERIAPSIS":"538.864","LAUNCH_DATE":"2021-12-02","CENTER_NAME":"EARTH","ECCENTRICITY":"0.00012640","PERIOD":"95.437","GP_ID":"223603296","TIME_SYSTEM":"UTC","REF_FRAME":"TEME","MEAN_MOTION_DDOT":"0.0000000000000","NORAD_CAT_ID":"49727","FILE":"3758367","BSTAR":"-0.00001028000000","CLASSIFICATION_TYPE":"U","OBJECT_NAME":"STARLINK-3242","TLE_LINE2":"2 49727  53.2131 244.1545 0001264  84.8123 275.3014 15.08842439 64152","OBJECT_TYPE":"PAYLOAD","APOAPSIS":"540.612","REV_AT_EPOCH":"6415","COUNTRY_CODE":"US"}];
